[{"OBJECT_NAME":"STARLINK-3541","OBJECT_ID":"2022-022C","EPOCH":"2026-03-09T03:43:39.090720","MEAN_MOTION":15.14066338,"ECCENTRICITY":0.00011202,"INCLINATION":53.2166,"RA_OF_ASC_NODE":19.7963,"ARG_OF_PERICENTER":55.171,"MEAN_ANOMALY":304.9389,"EPHEMERIS_TYPE":0,"CLASSIFICATION_TYPE":"U","NORAD_CAT_ID":51854,"ELEMENT_SET_NO":999,"REV_AT_EPOCH":22296,"BSTAR":0.0020482692,"MEAN_MOTION_DOT":0.00037583,"MEAN_MOTION_DDOT":0},{"OBJECT_NAME":"FALCON 9 DEB","OBJECT_ID":"2021-041BH","EPOCH":"2026-03-09T15:22:42.897792","MEAN_MOTION":15.1290094,"ECCENTRICITY":0.0010029,"INCLINATION":53.0279,"RA_OF_ASC_NODE":186.1166,"ARG_OF_PERICENTER":187.1036,"MEAN_ANOMALY":172.9815,"EPHEMERIS_TYPE":0,"CLASSIFICATION_TYPE":"U","NORAD_CAT_ID":48608,"ELEMENT_SET_NO":999,"REV_AT_EPOCH":26435,"BSTAR":0.00033747,"MEAN_MOTION_DOT":5.718e-5,"MEAN_MOTION_DDOT":0}]
